FENGYUN 1C DEB          
1 30013U 99025MN  17345.78631157  .00000021  00000-0  54790-4 0  9992
2 30013  99.3196 283.4499 0129426 263.0992 148.3800 13.86046516551735
